[{"OBJECT_NAME":"KAZEOSAT 1","OBJECT_ID":"2014-024A","EPOCH":"2026-03-09T22:32:10.650624","MEAN_MOTION":14.4203561,"ECCENTRICITY":0.0001038,"INCLINATION":98.3278,"RA_OF_ASC_NODE":143.8269,"ARG_OF_PERICENTER":83.2576,"MEAN_ANOMALY":276.8732,"EPHEMERIS_TYPE":0,"CLASSIFICATION_TYPE":"U","NORAD_CAT_ID":39731,"ELEMENT_SET_NO":999,"REV_AT_EPOCH":62425,"BSTAR":8.1032563e-5,"MEAN_MOTION_DOT":2.23e-6,"MEAN_MOTION_DDOT":0},{"OBJECT_NAME":"IRIDIUM 33 DEB","OBJECT_ID":"1997-051HW","EPOCH":"2026-03-09T12:29:10.947840","MEAN_MOTION":14.40738268,"ECCENTRICITY":0.00028905,"INCLINATION":86.3693,"RA_OF_ASC_NODE":358.4213,"ARG_OF_PERICENTER":289.1925,"MEAN_ANOMALY":70.8962,"EPHEMERIS_TYPE":0,"CLASSIFICATION_TYPE":"U","NORAD_CAT_ID":34529,"ELEMENT_SET_NO":999,"REV_AT_EPOCH":89391,"BSTAR":0.0002530371,"MEAN_MOTION_DOT":8.28e-6,"MEAN_MOTION_DDOT":0}]
